<?xml version="1.0" encoding="UTF-8"?>
<kml xmlns="http://www.opengis.net/kml/2.2">
  <Document>
    <name>Master 3 km</name>
    <Placemark><name>Boa 1</name><Point><coordinates>12.91178571531418,43.92507837794537,0</coordinates></Point></Placemark>
    <Placemark><name>Boa 2</name><Point><coordinates>12.92103361027470,43.91766070533492,0</coordinates></Point></Placemark>
    <Placemark><name>Boa 3</name><Point><coordinates>12.92850608896370,43.91545809289805,0</coordinates></Point></Placemark>
    <Placemark><name>Boa 7</name><Point><coordinates>12.92019546296618,43.92279427577850,0</coordinates></Point></Placemark>
    <Placemark><name>Boa riferimento partenza/arrivo</name><description>Boa di riferimento utilizzata per definire le linee immaginarie di partenza e arrivo insieme alle rispettive boe.</description><Point><coordinates>12.91334189037056,43.92624205850774,0</coordinates></Point></Placemark>
    <Placemark><name>Master 3 km</name><Style><LineStyle><color>ff005c83</color><width>4</width></LineStyle></Style><LineString><tessellate>1</tessellate><coordinates>12.91300004223490,43.92603679840693,0 12.92108833473924,43.91738151120180,0 12.92675163296104,43.92162860563257,0 12.92014687735489,43.92284493576925,0 12.91442379505100,43.92703747108420,0</coordinates></LineString></Placemark>
  </Document>
</kml>
