<?xml version="1.0" encoding="UTF-8"?>
<kml xmlns="http://www.opengis.net/kml/2.2">
  <Document>
    <name>Campo gara Pesaro 2026</name>
    <Placemark><name>Boa 1</name><Point><coordinates>12.91178571531418,43.92507837794537,0</coordinates></Point></Placemark>
    <Placemark><name>Boa 2</name><Point><coordinates>12.92103361027470,43.91766070533492,0</coordinates></Point></Placemark>
    <Placemark><name>Boa 3</name><Point><coordinates>12.92850608896370,43.91545809289805,0</coordinates></Point></Placemark>
    <Placemark><name>Boa 4</name><Point><coordinates>12.93205797204911,43.90851386216023,0</coordinates></Point></Placemark>
    <Placemark><name>Boa 5</name><Point><coordinates>12.93879039896511,43.91315207107629,0</coordinates></Point></Placemark>
    <Placemark><name>Boa 6</name><Point><coordinates>12.92638464970508,43.92151183862977,0</coordinates></Point></Placemark>
    <Placemark><name>Boa 7</name><Point><coordinates>12.92019546296618,43.92279427577850,0</coordinates></Point></Placemark>
    <Placemark><name>Boa 8</name><Point><coordinates>12.91468305031462,43.92730915081520,0</coordinates></Point></Placemark>
    <Placemark><name>Boa 2B</name><Point><coordinates>12.91813496578632,43.92118227316204,0</coordinates></Point></Placemark>
    <Placemark><name>Boa riferimento partenza/arrivo</name><description>Boa di riferimento utilizzata per definire le linee immaginarie di partenza e arrivo insieme alle rispettive boe.</description><Point><coordinates>12.91334189037056,43.92624205850774,0</coordinates></Point></Placemark>
    <Placemark><name>Master 3 km</name><Style><LineStyle><color>ff005c83</color><width>4</width></LineStyle></Style><LineString><tessellate>1</tessellate><coordinates>12.91300004223490,43.92603679840693,0 12.92108833473924,43.91738151120180,0 12.92675163296104,43.92162860563257,0 12.92014687735489,43.92284493576925,0 12.91442379505100,43.92703747108420,0</coordinates></LineString></Placemark>
    <Placemark><name>PR3 II - circa 1.700 m</name><Style><LineStyle><color>ff005c83</color><width>4</width></LineStyle></Style><LineString><tessellate>1</tessellate><coordinates>12.91328970085037,43.92611930705945,0 12.91814698784473,43.92102458094988,0 12.92057348958207,43.92295502230544,0 12.91471149668632,43.92725505100323,0</coordinates></LineString></Placemark>
    <Placemark><name>U19/U23/Senior 6 km</name><Style><LineStyle><color>ff005c83</color><width>4</width></LineStyle></Style><LineString><tessellate>1</tessellate><coordinates>12.91287328688802,43.92571957393033,0 12.92079783806704,43.91719877068466,0 12.92820944833935,43.91531504064639,0 12.93215694591383,43.90825531343765,0 12.93893600423918,43.91314203814718,0 12.93323266787790,43.91716153488071,0 12.92652375798429,43.92183709339885,0 12.92022476432652,43.92297602536480,0 12.91446686256807,43.92721186443011,0</coordinates></LineString></Placemark>
  </Document>
</kml>
